[{"OBJECT_NAME":"KUIPER-00246","OBJECT_ID":"2025-301U","EPOCH":"2026-03-09T22:00:01.999584","MEAN_MOTION":14.97785018,"ECCENTRICITY":0.00048695,"INCLINATION":51.9261,"RA_OF_ASC_NODE":67.2889,"ARG_OF_PERICENTER":75.0239,"MEAN_ANOMALY":130.5385,"EPHEMERIS_TYPE":0,"CLASSIFICATION_TYPE":"U","NORAD_CAT_ID":67151,"ELEMENT_SET_NO":999,"REV_AT_EPOCH":584,"BSTAR":-0.10186132,"MEAN_MOTION_DOT":-0.01114075,"MEAN_MOTION_DDOT":0},{"OBJECT_NAME":"FASTRAC 2 (USA 228)","OBJECT_ID":"2010-062M","EPOCH":"2026-03-09T23:32:52.018368","MEAN_MOTION":14.84460382,"ECCENTRICITY":0.00173581,"INCLINATION":71.9738,"RA_OF_ASC_NODE":6.9558,"ARG_OF_PERICENTER":295.6401,"MEAN_ANOMALY":64.2971,"EPHEMERIS_TYPE":0,"CLASSIFICATION_TYPE":"U","NORAD_CAT_ID":37380,"ELEMENT_SET_NO":999,"REV_AT_EPOCH":35105,"BSTAR":0.00019099988,"MEAN_MOTION_DOT":1.554e-5,"MEAN_MOTION_DDOT":0}]
